NORAD_CAT_ID,OBJECT_NAME,OBJECT_TYPE,EPOCH,MEAN_MOTION,ECCENTRICITY,INCLINATION,RA_OF_ASC_NODE,ARG_OF_PERICENTER,MEAN_ANOMALY,BSTAR,MEAN_MOTION_DOT,MEAN_MOTION_DDOT,TLE_LINE0,TLE_LINE1,TLE_LINE2,SEMIMAJOR_AXIS,PERIOD,APOGEE,PERIGEE,DECAYED
54171.0,STARLINK-5229,PAYLOAD,2022-11-23 06:00:00,15.73184877,0.0003184,53.2189,14.2294,10.5681,178.5439,0.00016976,0.00023258,0.0,0 STARLINK-5229,1 54171U 22141Q   22327.25001157  .00023258  00000-0  16976-3 0  9997,2 54171  53.2189  14.2294 0003184  10.5681 178.5439 15.73184877  4155,6727.938,91.534,351.945,347.661,0.0
54171.0,STARLINK-5229,PAYLOAD,2022-11-23 14:00:01,15.73202652,0.000347,53.2188,12.5817,8.4035,269.6315,-6.5882e-05,-9.863e-05,0.0,0 STARLINK-5229,1 54171U 22141Q   22327.58334491 -.00009863  00000-0 -65882-4 0  9992,2 54171  53.2188  12.5817 0003470   8.4035 269.6315 15.73202652  1304,6727.888000000001,91.533,352.087,347.418,0.0
54171.0,STARLINK-5229,PAYLOAD,2022-11-23 22:00:00,15.73162115,0.0003255,53.2187,10.9302,7.2673,359.7036,0.00049305,0.00069047,0.0,0 STARLINK-5229,1 54171U 22141Q   22327.91667824  .00069047  00000-0  49305-3 0  9997,2 54171  53.2187  10.9302 0003255   7.2673 359.7036 15.73162115  4268,6728.003000000002,91.535,352.05800000000005,347.67800000000005,0.0
54171.0,STARLINK-5229,PAYLOAD,2022-11-24 14:00:01,15.73155702,0.0003545,53.2178,7.6334,5.756,179.0643,0.00065634,0.00092356,0.0,0 STARLINK-5229,1 54171U 22141Q   22328.58334491  .00092356  00000-0  65634-3 0  9994,2 54171  53.2178   7.6334 0003545   5.7560 179.0643 15.73155702  1309,6728.021,91.536,352.272,347.501,0.0
54171.0,STARLINK-5229,PAYLOAD,2022-11-24 22:00:00,15.7321133,0.0003338,53.2179,5.9819,8.2795,265.4615,0.00019274,0.00026532,0.0,0 STARLINK-5229,1 54171U 22141Q   22328.91667824  .00026532  00000-0  19274-3 0  9992,2 54171  53.2179   5.9819 0003338   8.2795 265.4615 15.73211330  1306,6727.863,91.533,351.974,347.482,0.0
54171.0,STARLINK-5229,PAYLOAD,2022-11-25 06:00:00,15.73223939,0.0003455,53.2181,4.3328,13.1569,349.5440000000001,-0.00018286,-0.00026242,0.0,0 STARLINK-5229,1 54171U 22141Q   22329.25001157 -.00026242  00000-0 -18286-3 0  9993,2 54171  53.2181   4.3328 0003455  13.1569 349.5440 15.73223939  4470,6727.8269999999975,91.532,352.016,347.367,0.0
54171.0,STARLINK-5229,PAYLOAD,2022-11-25 14:00:01,15.73226231,0.0003728,53.2177,2.6833,12.1003,79.5464,0.00015148,0.00020719,0.0,0 STARLINK-5229,1 54171U 22141Q   22329.58334491  .00020719  00000-0  15148-3 0  9994,2 54171  53.2177   2.6833 0003728  12.1003  79.5464 15.73226231  1305,6727.82,91.532,352.194,347.177,0.0
54171.0,STARLINK-5229,PAYLOAD,2022-11-25 20:00:01,15.73350726,0.0003415,53.2181,1.4411,7.4763,60.8827,-0.0024812,-0.00337599,0.0,0 STARLINK-5229,1 54171U 22141Q   22329.83334491 -.00337599  00000-0 -24812-2 0  9998,2 54171  53.2181   1.4411 0003415   7.4763  60.8827 15.73350726  4566,6727.465,91.524,351.62800000000016,347.033,0.0
54171.0,STARLINK-5229,PAYLOAD,2022-11-25 22:00:00,15.73420157,0.0003104,53.2179,1.0265,4.3210000000000015,176.2746,-0.0047373999999999,-0.00624608,0.0,0 STARLINK-5229,1 54171U 22141Q   22329.91667824 -.00624608  00000-0 -47374-2 0  9994,2 54171  53.2179   1.0265 0003104   4.3210 176.2746 15.73420157  1301,6727.268,91.52,351.221,347.0440000000001,0.0
54171.0,STARLINK-5229,PAYLOAD,2022-11-26 06:00:00,15.73058671,0.000291,53.2177,359.3733,319.7744,309.7381,-0.0061337,-0.00781344,0.0,0 STARLINK-5229,1 54171U 22141Q   22330.25001157 -.00781344  00000-0 -61337-2 0  9990,2 54171  53.2177 359.3733 0002910 319.7744 309.7381 15.73058671  4621,6728.2980000000025,91.541,352.121,348.205,0.0
54171.0,STARLINK-5229,PAYLOAD,2022-11-26 12:00:00,15.72531633,0.0004545,53.2175,358.1385,290.5471,315.4443,-0.0073521,-0.00902923,0.0,0 STARLINK-5229,1 54171U 22141Q   22330.50001157 -.00902923  00000-0 -73521-2 0  9994,2 54171  53.2175 358.1385 0004545 290.5471 315.4443 15.72531633  4668,6729.801,91.572,354.725,348.608,0.0
54171.0,STARLINK-5229,PAYLOAD,2022-11-26 14:00:01,15.72438593,0.0005379,53.217,357.7267,285.0799,72.8927,-0.0085091,-0.01043428,0.0,0 STARLINK-5229,1 54171U 22141Q   22330.58334491 -.01043428  00000-0 -85091-2 0  9994,2 54171  53.2170 357.7267 0005379 285.0799  72.8927 15.72438593  1305,6730.066999999999,91.578,355.552,348.31199999999984,0.0
54171.0,STARLINK-5229,PAYLOAD,2022-11-26 22:00:00,15.71733209,0.000661,53.2174,356.0782,276.1711,169.3355,-0.01011,-0.01186036,0.0,0 STARLINK-5229,1 54171U 22141Q   22330.91667824 -.01186036  00000-0 -10110-1 0  9992,2 54171  53.2174 356.0782 0006610 276.1711 169.3355 15.71733209  4735,6732.08,91.619,358.395,349.495,0.0
54171.0,STARLINK-5229,PAYLOAD,2022-11-27 14:00:01,15.70007054,0.0006183,53.2172,352.7917,269.5184,348.2719,-0.0095282999999999,-0.0105323,0.0,0 STARLINK-5229,1 54171U 22141Q   22331.58334491 -.01053230  00000-0 -95283-2 0  9991,2 54171  53.2172 352.7917 0006183 269.5184 348.2719 15.70007054  4835,6737.014,91.719,363.044,354.713,0.0
54171.0,STARLINK-5229,PAYLOAD,2022-11-27 22:00:00,15.69223421,0.0005559,53.2176,351.1487,268.6925,73.7357,-0.010247,-0.01091281,0.0,0 STARLINK-5229,1 54171U 22141Q   22331.91667824 -.01091281  00000-0 -10247-1 0  9991,2 54171  53.2176 351.1487 0005559 268.6925  73.7357 15.69223421  4893,6739.257,91.765,364.86800000000005,357.375,0.0
54171.0,STARLINK-5229,PAYLOAD,2022-11-28 14:00:01,15.67672398,3.3100000000000005e-05,53.2169,347.8746,8.527000000000001,140.236,-0.012136,-0.01216369,0.0,0 STARLINK-5229,1 54171U 22141Q   22332.58334491 -.01216369  00000-0 -12136-1 0  9991,2 54171  53.2169 347.8746 0000331   8.5270 140.2360 15.67672398  4996,6743.701,91.856,365.789,365.343,0.0
54171.0,STARLINK-5229,PAYLOAD,2022-11-28 22:00:01,15.66839982,0.0001131,53.2173,346.2375,81.1391,149.417,-0.012251,-0.01189898,0.0,0 STARLINK-5229,1 54171U 22141Q   22332.91668981 -.01189898  00000-0 -12251-1 0  9996,2 54171  53.2173 346.2375 0001131  81.1391 149.4170 15.66839982  1307,6746.089,91.905,368.717,367.191,0.0
54171.0,STARLINK-5229,PAYLOAD,2022-11-29 06:00:00,15.6598711,0.0001054,53.2173,344.6052,105.5633,205.6865,-0.012059,-0.01136751,0.0,0 STARLINK-5229,1 54171U 22141Q   22333.25001157 -.01136751  00000-0 -12059-1 0  9996,2 54171  53.2173 344.6052 0001054 105.5633 205.6865 15.65987110  5097,6748.538000000001,91.955,371.115,369.692,0.0
54171.0,STARLINK-5229,PAYLOAD,2022-11-29 14:00:01,15.65188791,0.0001007,53.2169,342.9752,72.4993,318.5699,-0.012693,-0.01156484,0.0,0 STARLINK-5229,1 54171U 22141Q   22333.58335648 -.01156484  00000-0 -12693-1 0  9996,2 54171  53.2169 342.9752 0001007  72.4993 318.5699 15.65188791  1306,6750.833000000001,92.002,373.378,372.018,0.0
54171.0,STARLINK-5229,PAYLOAD,2022-11-29 22:00:00,15.64359919,0.0001121,53.2175,341.3446,76.5824,33.2153,-0.012886,-0.01137678,0.0,0 STARLINK-5229,1 54171U 22141Q   22333.91667824 -.01137678  00000-0 -12886-1 0  9995,2 54171  53.2175 341.3446 0001121  76.5824  33.2153 15.64359919  5201,6753.217,92.05,375.839,374.325,0.0
54171.0,STARLINK-5229,PAYLOAD,2022-11-30 14:00:01,15.62733376,0.0001131,53.2172,338.0927,80.6858,183.8122,-0.013749,-0.01137979,0.0,0 STARLINK-5229,1 54171U 22141Q   22334.58335648 -.01137979  00000-0 -13749-1 0  9998,2 54171  53.2172 338.0927 0001131  80.6858 183.8122 15.62733376  1305,6757.901999999999,92.146,380.532,379.003,0.0
54171.0,STARLINK-5229,PAYLOAD,2022-11-30 20:00:01,15.62119759,0.0001168,53.2175,336.8738,84.9586,146.4563,-0.014002,-0.01131938,0.0,0 STARLINK-5229,1 54171U 22141Q   22334.83334491 -.01131938  00000-0 -14002-1 0  9993,2 54171  53.2175 336.8738 0001168  84.9586 146.4563 15.62119759  5344,6759.672,92.182,382.327,380.747,0.0
54171.0,STARLINK-5229,PAYLOAD,2022-11-30 22:00:00,15.61915646,0.0001007,53.2173,336.468,85.6629,254.6236,-0.0141139999999999,-0.01131856,0.0,0 STARLINK-5229,1 54171U 22141Q   22334.91667824 -.01131856  00000-0 -14114-1 0  9994,2 54171  53.2173 336.4680 0001007  85.6629 254.6236 15.61915646  1301,6760.261,92.194,382.807,381.445,0.0
54171.0,STARLINK-5229,PAYLOAD,2022-12-01 14:00:01,15.60290884,0.0001151,53.2172,333.2295,92.0664,36.9867,-0.015078,-0.01134874,0.0,0 STARLINK-5229,1 54171U 22141Q   22335.58334491 -.01134874  00000-0 -15078-1 0  9992,2 54171  53.2172 333.2295 0001151  92.0664  36.9867 15.60290884  1308,6764.953,92.29,387.597,386.04,0.0
54171.0,STARLINK-5229,PAYLOAD,2022-12-01 20:00:01,15.59720916,0.0001181,53.2172,332.0164,70.5639,23.302,-0.015961,-0.01171295,0.0,0 STARLINK-5229,1 54171U 22141Q   22335.83335648 -.01171295  00000-0 -15961-1 0  9994,2 54171  53.2172 332.0164 0001181  70.5639  23.3020 15.59720916  5505,6766.601,92.324,389.265,387.667,0.0
54171.0,STARLINK-5229,PAYLOAD,2022-12-01 22:00:00,15.59534551,0.0001286,53.2171,331.612,78.0979,123.843,-0.016651,-0.01209005,0.0,0 STARLINK-5229,1 54171U 22141Q   22335.91667824 -.01209005  00000-0 -16651-1 0  9995,2 54171  53.2171 331.6120 0001286  78.0979 123.8430 15.59534551  1300,6767.14,92.335,389.875,388.135,0.0
54171.0,STARLINK-5229,PAYLOAD,2022-12-02 14:00:01,15.57864168,0.0001019,53.217,328.3848,80.6749,264.1897,-0.01685,-0.01153743,0.0,0 STARLINK-5229,1 54171U 22141Q   22336.58334491 -.01153743  00000-0 -16850-1 0  9998,2 54171  53.2170 328.3848 0001019  80.6749 264.1897 15.57864168  1301,6771.977,92.434,394.532,393.152,0.0
54171.0,STARLINK-5229,PAYLOAD,2022-12-02 22:00:00,15.57035883,0.0001095,53.2176,326.7717,70.3188,344.5379,-0.017058,-0.01134113,0.0,0 STARLINK-5229,1 54171U 22141Q   22336.91667824 -.01134113  00000-0 -17058-1 0  9995,2 54171  53.2176 326.7717 0001095  70.3188 344.5379 15.57035883  5677,6774.378000000002,92.483,396.985,395.501,0.0
54171.0,STARLINK-5229,PAYLOAD,2022-12-03 14:00:01,15.55424065,0.0001286,53.2169,323.5569,81.5157,110.3665,-0.018472,-0.01154171,0.0,0 STARLINK-5229,1 54171U 22141Q   22337.58334491 -.01154171  00000-0 -18472-1 0  9997,2 54171  53.2169 323.5569 0001286  81.5157 110.3665 15.55424065  1306,6779.057,92.579,401.794,400.05,0.0
